GLOBALSTAR M066         
1 32265U 07048C   25091.82291164 -.00000081  00000+0  11460-3 0  9991
2 32265  51.9634 246.5869 0002007  86.8526  61.9394 12.35252490806809
GLOBALSTAR M068         
1 32266U 07048D   25091.95410884 -.00000045  00000+0  32558-3 0  9999
2 32266  51.9876 174.6406 0000492 346.3752 182.8778 12.62818743807929
GLOBALSTAR M079         
1 37188U 10054A   25091.92594551 -.00000081  00000+0  12858-3 0  9990
2 37188  52.0068  11.9364 0000833  89.4112 346.5170 12.62272327666821
GLOBALSTAR M074         
1 37189U 10054B   25091.95330326 -.00000087  00000+0  94688-4 0  9990
2 37189  52.0049  11.1891 0000420  82.9173 355.9625 12.62267647667431
GLOBALSTAR M077         
1 37191U 10054D   25091.97166248 -.00000068  00000+0  19946-3 0  9997
2 37191  52.0092 328.1337 0000749  87.0205  16.1155 12.62272677667527
